INTELSAT 23 (IS-23)     
1 38867U 12057A   26179.86506603 -.00000273  00000+0  00000+0 0  9997
2 38867   0.0152  44.2822 0000463  77.8587  53.2361  1.00275947 50076
FM-6                    
1 39360U 13058A   26179.71001359 -.00000004  00000+0  00000+0 0  9992
2 39360   0.0186  47.5848 0001647 134.1485 234.3643  1.00270113 46187
INTELSAT 30 (IS-30)     
1 40271U 14062A   26179.68417422 -.00000139  00000+0  00000+0 0  9998
2 40271   0.0209  45.2858 0001725 346.1200  36.6237  1.00270773  6909
DIRECTV 14              
1 40333U 14078B   26179.92718310 -.00000114  00000+0  00000+0 0  9994
2 40333   0.0132  34.6968 0000211  28.5231  88.3403  1.00270917 42168
DIRECTV 15              
1 40663U 15026A   26179.92648976 -.00000091  00000+0  00000+0 0  9998
2 40663   0.0147  55.8050 0000436 357.6772  94.2008  1.00273103 40583
SKY MEXICO-1            
1 40664U 15026B   26179.93125645  .00000000  00000+0  00000+0 0  9992
2 40664   0.0286  27.3530 0002663  89.1430  56.9844  1.00269217 40570
INTELSAT 34 (IS-34)     
1 40874U 15039A   26179.68564581 -.00000274  00000+0  00000+0 0  9991
2 40874   0.0117 356.8645 0000689  30.4825  80.7691  1.00271838 39751
INTELSAT 31 (IS-31)     
1 41581U 16035A   26179.92804977 -.00000139  00000+0  00000+0 0  9997
2 41581   0.0204 277.9646 0000617 359.9277 238.1722  1.00270901 36806
INTELSAT 36 (IS-36)     
1 41747U 16053A   26179.87683578 -.00000012  00000+0  00000+0 0  9997
2 41747   0.0093   7.1095 0001869 338.4148 315.6097  1.00267413 36075
INTELSAT 32E (IS-32E)   
1 41945U 17007B   26179.72444769  .00000000  00000+0  00000+0 0  9994
2 41945   0.0253  13.9692 0000768 345.2204 135.2569  1.00269366 34344
INTELSAT 35E (IS-35E)   
1 42818U 17041A   26179.65480653 -.00000227  00000+0  00000+0 0  9998
2 42818   0.0048  94.5966 0002367   3.5797  19.8051  1.00270796 32938
INTELSAT 37E (IS-37E)   
1 42950U 17059A   26179.87199640  .00000000  00000+0  00000+0 0  9999
2 42950   0.0247  17.1245 0002909  84.0079 111.7491  1.00269014 32184
AZERSPACE 2 (IS-38)     
1 43632U 18074A   26179.95577888  .00000000  00000+0  00000+0 0  9998
2 43632   0.0251  13.4747 0001717  85.7116 207.0523  1.00269377 28563
HORIZONS-3E             
1 43633U 18074B   26179.62454083 -.00000019  00000+0  00000+0 0  9995
2 43633   0.0211 191.0210 0000435  96.3678  23.1753  1.00271069 28456
AT&T T-16               
1 44333U 19034A   26179.64171980 -.00000104  00000+0  00000+0 0  9999
2 44333   0.0136  53.4567 0000732 291.8967  61.5474  1.00271064 25749
INTELSAT 39 (IS-39)     
1 44476U 19049B   26179.95915889  .00000000  00000+0  00000+0 0  9995
2 44476   0.0250  11.9936 0000899 339.7199 332.5860  1.00269275 25242
GALAXY 30 (G-30)        
1 46114U 20056C   26179.70828025  .00000048  00000+0  00000+0 0  9996
2 46114   0.0188  23.4960 0002283  71.7515 311.5176  1.00272339 21408
GALAXY 33 (G-33)        
1 54026U 22128A   26179.76968749  .00000090  00000+0  00000+0 0  9990
2 54026   0.0143 355.9999 0002082  98.3263 326.6212  1.00272199 13859
GALAXY 34 (G-34)        
1 54027U 22128B   26179.70741358  .00000000  00000+0  00000+0 0  9991
2 54027   0.0267 359.9068 0001975 106.1885 296.3759  1.00274831 14020
GALAXY 31 (G-31)        
1 54243U 22153A   26179.77243409  .00000000  00000+0  00000+0 0  9990
2 54243   0.0228  42.3796 0001638  52.7564 338.7992  1.00270265  7247
GALAXY 32 (G-32)        
1 54244U 22153B   26179.69422476 -.00000163  00000+0  00000+0 0  9996
2 54244   0.0113  11.5139 0002014  37.2507  26.9432  1.00270635 13258
GALAXY 35 (G-35)        
1 54741U 22170A   26179.92839644  .00000000  00000+0  00000+0 0  9991
2 54741   0.0218  32.6861 0002205  65.2680  60.1742  1.00269099 13017
GALAXY 36 (G-36)        
1 54742U 22170B   26179.92926310 -.00000174  00000+0  00000+0 0  9992
2 54742   0.0162 270.1545 0002901 181.1496  71.2493  1.00271383 12890
GALAXY 37 (G-37)        
1 57493U 23112A   26179.63660645  .00000059  00000+0  00000+0 0  9990
2 57493   0.0195  61.1818 0002264  33.9743 283.7544  1.00272418 10653
